1 00001U XXXXXX   15244.66736111 -.00000000  00000-0 -00000-0 0  XXX3
2 00001  98.0045 000.0021 0006073 225.3031 131.0481 14.91352166000011